{
  "type": "FeatureCollection",
  "features": [
    {
      "type": "Feature",
      "properties": {
        "norad_id": 66463,
        "name": "STARLINK-35463",
        "group": "last-30-days",
        "lat": 36.198098324164185,
        "lon": -101.55292305292329,
        "alt_km": 372.8248626169552,
        "timestamp": "2025-12-02T15:49:05.948631+00:00",
        "meta_object_name": "STARLINK-35463",
        "meta_object_id": "2025-262H",
        "meta_epoch": "2025-12-02T06:00:02.999808",
        "meta_mean_motion": 15.65431743,
        "meta_eccentricity": 0.00016935,
        "meta_inclination": 42.9995,
        "meta_ra_of_asc_node": 132.6467,
        "meta_arg_of_pericenter": 268.9411,
        "meta_mean_anomaly": 64.3158,
        "meta_ephemeris_type": 0,
        "meta_classification_type": "U",
        "meta_norad_cat_id": 66463,
        "meta_element_set_no": 999,
        "meta_rev_at_epoch": 395,
        "meta_bstar": -0.023303785,
        "meta_mean_motion_dot": -0.02093685,
        "meta_mean_motion_ddot": 0,
        "tle_line1": "1 66463U 25262H   25336.25003472 -.02093685  00000+0 -23304-1 0  9991",
        "tle_line2": "2 66463  42.9995 132.6467 0001693 268.9411  64.3158 15.65431743  3957"
      },
      "geometry": {
        "type": "Point",
        "coordinates": [
          -101.55292305292329,
          36.198098324164185
        ]
      }
    },
    {
      "type": "Feature",
      "properties": {
        "norad_id": 66464,
        "name": "STARLINK-35435",
        "group": "last-30-days",
        "lat": 36.987843590473354,
        "lon": -103.72567526149226,
        "alt_km": 372.7376483053695,
        "timestamp": "2025-12-02T15:49:05.948640+00:00",
        "meta_object_name": "STARLINK-35435",
        "meta_object_id": "2025-262J",
        "meta_epoch": "2025-12-02T06:00:02.999808",
        "meta_mean_motion": 15.65431114,
        "meta_eccentricity": 0.00017075,
        "meta_inclination": 42.9992,
        "meta_ra_of_asc_node": 132.6518,
        "meta_arg_of_pericenter": 269.1316,
        "meta_mean_anomaly": 62.2102,
        "meta_ephemeris_type": 0,
        "meta_classification_type": "U",
        "meta_norad_cat_id": 66464,
        "meta_element_set_no": 999,
        "meta_rev_at_epoch": 395,
        "meta_bstar": -0.023320289,
        "meta_mean_motion_dot": -0.02094943,
        "meta_mean_motion_ddot": 0,
        "tle_line1": "1 66464U 25262J   25336.25003472 -.02094943  00000+0 -23320-1 0  9998",
        "tle_line2": "2 66464  42.9992 132.6518 0001707 269.1316  62.2102 15.65431114  3953"
      },
      "geometry": {
        "type": "Point",
        "coordinates": [
          -103.72567526149226,
          36.987843590473354
        ]
      }
    },
    {
      "type": "Feature",
      "properties": {
        "norad_id": 66465,
        "name": "STARLINK-35448",
        "group": "last-30-days",
        "lat": 34.504589538988796,
        "lon": -97.34130871163892,
        "alt_km": 373.08439584028747,
        "timestamp": "2025-12-02T15:49:05.948650+00:00",
        "meta_object_name": "STARLINK-35448",
        "meta_object_id": "2025-262K",
        "meta_epoch": "2025-12-02T06:00:02.999808",
        "meta_mean_motion": 15.65433003,
        "meta_eccentricity": 0.0001779,
        "meta_inclination": 42.9995,
        "meta_ra_of_asc_node": 132.6374,
        "meta_arg_of_pericenter": 267.9871,
        "meta_mean_anomaly": 69.1029,
        "meta_ephemeris_type": 0,
        "meta_classification_type": "U",
        "meta_norad_cat_id": 66465,
        "meta_element_set_no": 999,
        "meta_rev_at_epoch": 395,
        "meta_bstar": -0.023323231,
        "meta_mean_motion_dot": -0.02095375,
        "meta_mean_motion_ddot": 0,
        "tle_line1": "1 66465U 25262K   25336.25003472 -.02095375  00000+0 -23323-1 0  9992",
        "tle_line2": "2 66465  42.9995 132.6374 0001779 267.9871  69.1029 15.65433003  3951"
      },
      "geometry": {
        "type": "Point",
        "coordinates": [
          -97.34130871163892,
          34.504589538988796
        ]
      }
    },
    {
      "type": "Feature",
      "properties": {
        "norad_id": 66466,
        "name": "STARLINK-35388",
        "group": "last-30-days",
        "lat": 33.60321962975323,
        "lon": -95.29946907206875,
        "alt_km": 373.23456948336843,
        "timestamp": "2025-12-02T15:49:05.948660+00:00",
        "meta_object_name": "STARLINK-35388",
        "meta_object_id": "2025-262L",
        "meta_epoch": "2025-12-02T06:00:02.999808",
        "meta_mean_motion": 15.65428523,
        "meta_eccentricity": 0.00017184,
        "meta_inclination": 42.9995,
        "meta_ra_of_asc_node": 132.6314,
        "meta_arg_of_pericenter": 272.245,
        "meta_mean_anomaly": 66.7664,
        "meta_ephemeris_type": 0,
        "meta_classification_type": "U",
        "meta_norad_cat_id": 66466,
        "meta_element_set_no": 999,
        "meta_rev_at_epoch": 395,
        "meta_bstar": -0.023282904,
        "meta_mean_motion_dot": -0.02091834,
        "meta_mean_motion_ddot": 0,
        "tle_line1": "1 66466U 25262L   25336.25003472 -.02091834  00000+0 -23283-1 0  9994",
        "tle_line2": "2 66466  42.9995 132.6314 0001718 272.2450  66.7664 15.65428523  3950"
      },
      "geometry": {
        "type": "Point",
        "coordinates": [
          -95.29946907206875,
          33.60321962975323
        ]
      }
    },
    {
      "type": "Feature",
      "properties": {
        "norad_id": 66467,
        "name": "STARLINK-35682",
        "group": "last-30-days",
        "lat": 35.37006999445691,
        "lon": -99.4266937628551,
        "alt_km": 373.0302485671182,
        "timestamp": "2025-12-02T15:49:05.948672+00:00",
        "meta_object_name": "STARLINK-35682",
        "meta_object_id": "2025-262M",
        "meta_epoch": "2025-12-02T06:00:02.999808",
        "meta_mean_motion": 15.65433215,
        "meta_eccentricity": 0.00018629,
        "meta_inclination": 42.9992,
        "meta_ra_of_asc_node": 132.642,
        "meta_arg_of_pericenter": 268.4752,
        "meta_mean_anomaly": 66.6973,
        "meta_ephemeris_type": 0,
        "meta_classification_type": "U",
        "meta_norad_cat_id": 66467,
        "meta_element_set_no": 999,
        "meta_rev_at_epoch": 395,
        "meta_bstar": -0.02332876,
        "meta_mean_motion_dot": -0.02095899,
        "meta_mean_motion_ddot": 0,
        "tle_line1": "1 66467U 25262M   25336.25003472 -.02095899  00000+0 -23329-1 0  9991",
        "tle_line2": "2 66467  42.9992 132.6420 0001862 268.4752  66.6973 15.65433215  3954"
      },
      "geometry": {
        "type": "Point",
        "coordinates": [
          -99.4266937628551,
          35.37006999445691
        ]
      }
    },
    {
      "type": "Feature",
      "properties": {
        "norad_id": 66468,
        "name": "STARLINK-35331",
        "group": "last-30-days",
        "lat": 32.67068601191589,
        "lon": -93.3028705330806,
        "alt_km": 373.38565735715383,
        "timestamp": "2025-12-02T15:49:05.948682+00:00",
        "meta_object_name": "STARLINK-35331",
        "meta_object_id": "2025-262N",
        "meta_epoch": "2025-12-02T06:00:02.999808",
        "meta_mean_motion": 15.65437022,
        "meta_eccentricity": 0.00017876,
        "meta_inclination": 42.9993,
        "meta_ra_of_asc_node": 132.6276,
        "meta_arg_of_pericenter": 271.1293,
        "meta_mean_anomaly": 69.793,
        "meta_ephemeris_type": 0,
        "meta_classification_type": "U",
        "meta_norad_cat_id": 66468,
        "meta_element_set_no": 999,
        "meta_rev_at_epoch": 395,
        "meta_bstar": -0.023394321,
        "meta_mean_motion_dot": -0.02101242,
        "meta_mean_motion_ddot": 0,
        "tle_line1": "1 66468U 25262N   25336.25003472 -.02101242  00000+0 -23394-1 0  9994",
        "tle_line2": "2 66468  42.9993 132.6276 0001787 271.1293  69.7930 15.65437022  3959"
      },
      "geometry": {
        "type": "Point",
        "coordinates": [
          -93.3028705330806,
          32.67068601191589
        ]
      }
    },
    {
      "type": "Feature",
      "properties": {
        "norad_id": 66469,
        "name": "STARLINK-35451",
        "group": "last-30-days",
        "lat": 29.690917102336826,
        "lon": -87.55960792237211,
        "alt_km": 373.7001048356087,
        "timestamp": "2025-12-02T15:49:05.948692+00:00",
        "meta_object_name": "STARLINK-35451",
        "meta_object_id": "2025-262P",
        "meta_epoch": "2025-12-02T06:00:02.999808",
        "meta_mean_motion": 15.65428909,
        "meta_eccentricity": 0.00017551,
        "meta_inclination": 42.999,
        "meta_ra_of_asc_node": 132.6115,
        "meta_arg_of_pericenter": 268.1893,
        "meta_mean_anomaly": 78.4906,
        "meta_ephemeris_type": 0,
        "meta_classification_type": "U",
        "meta_norad_cat_id": 66469,
        "meta_element_set_no": 999,
        "meta_rev_at_epoch": 395,
        "meta_bstar": -0.023274347,
        "meta_mean_motion_dot": -0.02091226,
        "meta_mean_motion_ddot": 0,
        "tle_line1": "1 66469U 25262P   25336.25003472 -.02091226  00000+0 -23274-1 0  9992",
        "tle_line2": "2 66469  42.9990 132.6115 0001755 268.1893  78.4906 15.65428909  3950"
      },
      "geometry": {
        "type": "Point",
        "coordinates": [
          -87.55960792237211,
          29.690917102336826
        ]
      }
    }
  ]
}